STARLINK-36092          
1 66869U 25281X   25361.16668980 -.00087557  00000+0 -14993-2 0  9995
2 66869  43.0000  35.1909 0001121 242.9541 324.1795 15.50655794  3734
STARLINK-36114          
1 66870U 25281Y   25361.16668980 -.00091123  00000+0 -15611-2 0  9999
2 66870  43.0000  35.1859 0001078 236.7681 332.2797 15.50658960  3603
STARLINK-36095          
1 66871U 25281Z   25361.16668980 -.00102726  00000+0 -17630-2 0  9995
2 66871  43.0000  35.1808 0000951 228.8297 342.1404 15.50663261  3731
STARLINK-36082          
1 66872U 25281AA  25361.16668980 -.00091187  00000+0 -15623-2 0  9994
2 66872  43.0001  35.1761 0001193 239.7611 333.1205 15.50658381  3603
STARLINK-36128          
1 66873U 25281AB  25361.16668980 -.00100138  00000+0 -17178-2 0  9999
2 66873  42.9999  35.1608 0001187 231.6857 346.9481 15.50663558  3738
STARLINK-36129          
1 66874U 25281AC  25361.16668980 -.00160795  00000+0 -27801-2 0  9999
2 66874  43.0000  35.1711 0000997 238.9565 335.8447 15.50696373  3733
STARLINK-36053          
1 66875U 25281AD  25361.16668980 -.00080979  00000+0 -13851-2 0  9995
2 66875  43.0000  35.1555 0001162 233.7871 346.7574 15.50654507  3733
STARLINK-35702          
1 66876U 25281AE  25361.16668980 -.00150676  00000+0 -26019-2 0  9998
2 66876  42.9999  35.1660 0000972 240.5016 336.2142 15.50691104  3730
ZQ-3 R/B                
1 66877U 25282A   25361.12259998  .01036021  80059-5  16875-3 0  9995
2 66877  56.9486   1.3867 0657856 245.4511 107.6609 14.88867609  3513
STARLINK-35866          
1 66878U 25283A   25361.16668980 -.02055236  00000+0 -35816-1 0  9994
2 66878  53.1594   2.1848 0001118  82.2470 302.9031 15.53395526  4748
STARLINK-35749          
1 66879U 25283B   25361.16668980 -.02119184  00000+0 -37066-1 0  9997
2 66879  53.1594   2.1763 0001223  87.6090 301.4317 15.53398144  4749
STARLINK-35844          
1 66880U 25283C   25361.16668980 -.02053768  00000+0 -35788-1 0  9993
2 66880  53.1599   2.1809 0001090  82.2858 304.7812 15.53395048  4748
