CCSDS_OMM_VERS = 2.0
CREATION_DATE  = 
ORIGINATOR     = 

OBJECT_NAME    = STARLINK-36092
OBJECT_ID      = 2025-281X
CENTER_NAME    = EARTH
REF_FRAME      = TEME
TIME_SYSTEM    = UTC
MEAN_ELEMENT_THEORY = SGP/SGP4

EPOCH          = 2025-12-27T04:00:01.998720
MEAN_MOTION    = 15.50655794
ECCENTRICITY   = .0001121
INCLINATION    = 43.0000
RA_OF_ASC_NODE = 35.1909
ARG_OF_PERICENTER = 242.9541
MEAN_ANOMALY   = 324.1795

EPHEMERIS_TYPE = 0
CLASSIFICATION_TYPE = U
NORAD_CAT_ID   = 66869
ELEMENT_SET_NO = 999
REV_AT_EPOCH   = 373
BSTAR          = -.14993E-2
MEAN_MOTION_DOT = -.87557E-3
MEAN_MOTION_DDOT = 0

CCSDS_OMM_VERS = 2.0
CREATION_DATE  = 
ORIGINATOR     = 

OBJECT_NAME    = STARLINK-36114
OBJECT_ID      = 2025-281Y
CENTER_NAME    = EARTH
REF_FRAME      = TEME
TIME_SYSTEM    = UTC
MEAN_ELEMENT_THEORY = SGP/SGP4

EPOCH          = 2025-12-27T04:00:01.998720
MEAN_MOTION    = 15.50658960
ECCENTRICITY   = .0001078
INCLINATION    = 43.0000
RA_OF_ASC_NODE = 35.1859
ARG_OF_PERICENTER = 236.7681
MEAN_ANOMALY   = 332.2797

EPHEMERIS_TYPE = 0
CLASSIFICATION_TYPE = U
NORAD_CAT_ID   = 66870
ELEMENT_SET_NO = 999
REV_AT_EPOCH   = 360
BSTAR          = -.15611E-2
MEAN_MOTION_DOT = -.91123E-3
MEAN_MOTION_DDOT = 0

CCSDS_OMM_VERS = 2.0
CREATION_DATE  = 
ORIGINATOR     = 

OBJECT_NAME    = STARLINK-36095
OBJECT_ID      = 2025-281Z
CENTER_NAME    = EARTH
REF_FRAME      = TEME
TIME_SYSTEM    = UTC
MEAN_ELEMENT_THEORY = SGP/SGP4

EPOCH          = 2025-12-27T04:00:01.998720
MEAN_MOTION    = 15.50663261
ECCENTRICITY   = .0000951
INCLINATION    = 43.0000
RA_OF_ASC_NODE = 35.1808
ARG_OF_PERICENTER = 228.8297
MEAN_ANOMALY   = 342.1404

EPHEMERIS_TYPE = 0
CLASSIFICATION_TYPE = U
NORAD_CAT_ID   = 66871
ELEMENT_SET_NO = 999
REV_AT_EPOCH   = 373
BSTAR          = -.1763E-2
MEAN_MOTION_DOT = -.102726E-2
MEAN_MOTION_DDOT = 0

CCSDS_OMM_VERS = 2.0
CREATION_DATE  = 
ORIGINATOR     = 

OBJECT_NAME    = STARLINK-36082
OBJECT_ID      = 2025-281AA
CENTER_NAME    = EARTH
REF_FRAME      = TEME
TIME_SYSTEM    = UTC
MEAN_ELEMENT_THEORY = SGP/SGP4

EPOCH          = 2025-12-27T04:00:01.998720
MEAN_MOTION    = 15.50658381
ECCENTRICITY   = .0001193
INCLINATION    = 43.0001
RA_OF_ASC_NODE = 35.1761
ARG_OF_PERICENTER = 239.7611
MEAN_ANOMALY   = 333.1205

EPHEMERIS_TYPE = 0
CLASSIFICATION_TYPE = U
NORAD_CAT_ID   = 66872
ELEMENT_SET_NO = 999
REV_AT_EPOCH   = 360
BSTAR          = -.15623E-2
MEAN_MOTION_DOT = -.91187E-3
MEAN_MOTION_DDOT = 0

CCSDS_OMM_VERS = 2.0
CREATION_DATE  = 
ORIGINATOR     = 

OBJECT_NAME    = STARLINK-36128
OBJECT_ID      = 2025-281AB
CENTER_NAME    = EARTH
REF_FRAME      = TEME
TIME_SYSTEM    = UTC
MEAN_ELEMENT_THEORY = SGP/SGP4

EPOCH          = 2025-12-27T04:00:01.998720
MEAN_MOTION    = 15.50663558
ECCENTRICITY   = .0001187
INCLINATION    = 42.9999
RA_OF_ASC_NODE = 35.1608
ARG_OF_PERICENTER = 231.6857
MEAN_ANOMALY   = 346.9481

EPHEMERIS_TYPE = 0
CLASSIFICATION_TYPE = U
NORAD_CAT_ID   = 66873
ELEMENT_SET_NO = 999
REV_AT_EPOCH   = 373
BSTAR          = -.17178E-2
MEAN_MOTION_DOT = -.100138E-2
MEAN_MOTION_DDOT = 0

CCSDS_OMM_VERS = 2.0
CREATION_DATE  = 
ORIGINATOR     = 

OBJECT_NAME    = STARLINK-36129
OBJECT_ID      = 2025-281AC
CENTER_NAME    = EARTH
REF_FRAME      = TEME
TIME_SYSTEM    = UTC
MEAN_ELEMENT_THEORY = SGP/SGP4

EPOCH          = 2025-12-27T04:00:01.998720
MEAN_MOTION    = 15.50696373
ECCENTRICITY   = .0000997
INCLINATION    = 43.0000
RA_OF_ASC_NODE = 35.1711
ARG_OF_PERICENTER = 238.9565
MEAN_ANOMALY   = 335.8447

EPHEMERIS_TYPE = 0
CLASSIFICATION_TYPE = U
NORAD_CAT_ID   = 66874
ELEMENT_SET_NO = 999
REV_AT_EPOCH   = 373
BSTAR          = -.27801E-2
MEAN_MOTION_DOT = -.160795E-2
MEAN_MOTION_DDOT = 0

CCSDS_OMM_VERS = 2.0
CREATION_DATE  = 
ORIGINATOR     = 

OBJECT_NAME    = STARLINK-36053
OBJECT_ID      = 2025-281AD
CENTER_NAME    = EARTH
REF_FRAME      = TEME
TIME_SYSTEM    = UTC
MEAN_ELEMENT_THEORY = SGP/SGP4

EPOCH          = 2025-12-27T04:00:01.998720
MEAN_MOTION    = 15.50654507
ECCENTRICITY   = .0001162
INCLINATION    = 43.0000
RA_OF_ASC_NODE = 35.1555
ARG_OF_PERICENTER = 233.7871
MEAN_ANOMALY   = 346.7574

EPHEMERIS_TYPE = 0
CLASSIFICATION_TYPE = U
NORAD_CAT_ID   = 66875
ELEMENT_SET_NO = 999
REV_AT_EPOCH   = 373
BSTAR          = -.13851E-2
MEAN_MOTION_DOT = -.80979E-3
MEAN_MOTION_DDOT = 0

CCSDS_OMM_VERS = 2.0
CREATION_DATE  = 
ORIGINATOR     = 

OBJECT_NAME    = STARLINK-35702
OBJECT_ID      = 2025-281AE
CENTER_NAME    = EARTH
REF_FRAME      = TEME
TIME_SYSTEM    = UTC
MEAN_ELEMENT_THEORY = SGP/SGP4

EPOCH          = 2025-12-27T04:00:01.998720
MEAN_MOTION    = 15.50691104
ECCENTRICITY   = .0000972
INCLINATION    = 42.9999
RA_OF_ASC_NODE = 35.1660
ARG_OF_PERICENTER = 240.5016
MEAN_ANOMALY   = 336.2142

EPHEMERIS_TYPE = 0
CLASSIFICATION_TYPE = U
NORAD_CAT_ID   = 66876
ELEMENT_SET_NO = 999
REV_AT_EPOCH   = 373
BSTAR          = -.26019E-2
MEAN_MOTION_DOT = -.150676E-2
MEAN_MOTION_DDOT = 0

CCSDS_OMM_VERS = 2.0
CREATION_DATE  = 
ORIGINATOR     = 

OBJECT_NAME    = ZQ-3 R/B
OBJECT_ID      = 2025-282A
CENTER_NAME    = EARTH
REF_FRAME      = TEME
TIME_SYSTEM    = UTC
MEAN_ELEMENT_THEORY = SGP/SGP4

EPOCH          = 2025-12-27T02:56:32.638272
MEAN_MOTION    = 14.88867609
ECCENTRICITY   = .0657856
INCLINATION    = 56.9486
RA_OF_ASC_NODE = 1.3867
ARG_OF_PERICENTER = 245.4511
MEAN_ANOMALY   = 107.6609

EPHEMERIS_TYPE = 0
CLASSIFICATION_TYPE = U
NORAD_CAT_ID   = 66877
ELEMENT_SET_NO = 999
REV_AT_EPOCH   = 351
BSTAR          = .16875E-3
MEAN_MOTION_DOT = .1036021E-1
MEAN_MOTION_DDOT = .80059E-5

CCSDS_OMM_VERS = 2.0
CREATION_DATE  = 
ORIGINATOR     = 

OBJECT_NAME    = STARLINK-35866
OBJECT_ID      = 2025-283A
CENTER_NAME    = EARTH
REF_FRAME      = TEME
TIME_SYSTEM    = UTC
MEAN_ELEMENT_THEORY = SGP/SGP4

EPOCH          = 2025-12-27T04:00:01.998720
MEAN_MOTION    = 15.53395526
ECCENTRICITY   = .0001118
INCLINATION    = 53.1594
RA_OF_ASC_NODE = 2.1848
ARG_OF_PERICENTER = 82.2470
MEAN_ANOMALY   = 302.9031

EPHEMERIS_TYPE = 0
CLASSIFICATION_TYPE = U
NORAD_CAT_ID   = 66878
ELEMENT_SET_NO = 999
REV_AT_EPOCH   = 474
BSTAR          = -.35816E-1
MEAN_MOTION_DOT = -.2055236E-1
MEAN_MOTION_DDOT = 0

CCSDS_OMM_VERS = 2.0
CREATION_DATE  = 
ORIGINATOR     = 

OBJECT_NAME    = STARLINK-35749
OBJECT_ID      = 2025-283B
CENTER_NAME    = EARTH
REF_FRAME      = TEME
TIME_SYSTEM    = UTC
MEAN_ELEMENT_THEORY = SGP/SGP4

EPOCH          = 2025-12-27T04:00:01.998720
MEAN_MOTION    = 15.53398144
ECCENTRICITY   = .0001223
INCLINATION    = 53.1594
RA_OF_ASC_NODE = 2.1763
ARG_OF_PERICENTER = 87.6090
MEAN_ANOMALY   = 301.4317

EPHEMERIS_TYPE = 0
CLASSIFICATION_TYPE = U
NORAD_CAT_ID   = 66879
ELEMENT_SET_NO = 999
REV_AT_EPOCH   = 474
BSTAR          = -.37066E-1
MEAN_MOTION_DOT = -.2119184E-1
MEAN_MOTION_DDOT = 0

CCSDS_OMM_VERS = 2.0
CREATION_DATE  = 
ORIGINATOR     = 

OBJECT_NAME    = STARLINK-35844
OBJECT_ID      = 2025-283C
CENTER_NAME    = EARTH
REF_FRAME      = TEME
TIME_SYSTEM    = UTC
MEAN_ELEMENT_THEORY = SGP/SGP4

EPOCH          = 2025-12-27T04:00:01.998720
MEAN_MOTION    = 15.53395048
ECCENTRICITY   = .000109
INCLINATION    = 53.1599
RA_OF_ASC_NODE = 2.1809
ARG_OF_PERICENTER = 82.2858
MEAN_ANOMALY   = 304.7812

EPHEMERIS_TYPE = 0
CLASSIFICATION_TYPE = U
NORAD_CAT_ID   = 66880
ELEMENT_SET_NO = 999
REV_AT_EPOCH   = 474
BSTAR          = -.35788E-1
MEAN_MOTION_DOT = -.2053768E-1
MEAN_MOTION_DDOT = 0

